{
  "type": "FeatureCollection",
  "features": [
    {
      "type": "Feature",
      "properties": {
        "norad_id": 66746,
        "name": "TRANSPORTER-15CJ",
        "group": "last-30-days",
        "lat": -60.80164966561628,
        "lon": 82.05939461402531,
        "alt_km": 519.4183089084081,
        "timestamp": "2025-12-22T22:44:19.650660+00:00",
        "meta_object_name": "TRANSPORTER-15CJ",
        "meta_object_id": "2025-276CJ",
        "meta_epoch": "2025-12-22T10:20:58.283232",
        "meta_mean_motion": 15.17466775,
        "meta_eccentricity": 0.00025324,
        "meta_inclination": 97.4408,
        "meta_ra_of_asc_node": 68.0277,
        "meta_arg_of_pericenter": 254.7861,
        "meta_mean_anomaly": 105.3092,
        "meta_ephemeris_type": 0,
        "meta_classification_type": "U",
        "meta_norad_cat_id": 66746,
        "meta_element_set_no": 999,
        "meta_rev_at_epoch": 359,
        "meta_bstar": 0.00067533479,
        "meta_mean_motion_dot": 0.00013472,
        "meta_mean_motion_ddot": 0,
        "tle_line1": "1 66746U 25276CJ  25356.43123013  .00013472  00000+0  67533-3 0  9992",
        "tle_line2": "2 66746  97.4408  68.0277 0002532 254.7861 105.3092 15.17466775  3594"
      },
      "geometry": {
        "type": "Point",
        "coordinates": [
          82.05939461402531,
          -60.80164966561628
        ]
      }
    },
    {
      "type": "Feature",
      "properties": {
        "norad_id": 66747,
        "name": "W-SERIES 5",
        "group": "last-30-days",
        "lat": -52.40156221793126,
        "lon": 78.31599274265488,
        "alt_km": 516.2796515500331,
        "timestamp": "2025-12-22T22:44:19.650670+00:00",
        "meta_object_name": "W-SERIES 5",
        "meta_object_id": "2025-276CK",
        "meta_epoch": "2025-12-22T13:28:53.727744",
        "meta_mean_motion": 15.18695584,
        "meta_eccentricity": 0.00047886,
        "meta_inclination": 97.4439,
        "meta_ra_of_asc_node": 68.1609,
        "meta_arg_of_pericenter": 281.8459,
        "meta_mean_anomaly": 78.2238,
        "meta_ephemeris_type": 0,
        "meta_classification_type": "U",
        "meta_norad_cat_id": 66747,
        "meta_element_set_no": 999,
        "meta_rev_at_epoch": 361,
        "meta_bstar": -0.048902242,
        "meta_mean_motion_dot": -0.0093826,
        "meta_mean_motion_ddot": 0,
        "tle_line1": "1 66747U 25276CK  25356.56173296 -.00938260  00000+0 -48902-1 0  9995",
        "tle_line2": "2 66747  97.4439  68.1609 0004788 281.8459  78.2238 15.18695584  3614"
      },
      "geometry": {
        "type": "Point",
        "coordinates": [
          78.31599274265488,
          -52.40156221793126
        ]
      }
    },
    {
      "type": "Feature",
      "properties": {
        "norad_id": 66748,
        "name": "TRANSPORTER-15CL",
        "group": "last-30-days",
        "lat": -6.409179587946636,
        "lon": 69.39832166915158,
        "alt_km": 515.156199885495,
        "timestamp": "2025-12-22T22:44:19.650682+00:00",
        "meta_object_name": "TRANSPORTER-15CL",
        "meta_object_id": "2025-276CL",
        "meta_epoch": "2025-12-22T11:41:47.551488",
        "meta_mean_motion": 15.18482862,
        "meta_eccentricity": 0.00019569,
        "meta_inclination": 97.4411,
        "meta_ra_of_asc_node": 68.1044,
        "meta_arg_of_pericenter": 222.4156,
        "meta_mean_anomaly": 137.6927,
        "meta_ephemeris_type": 0,
        "meta_classification_type": "U",
        "meta_norad_cat_id": 66748,
        "meta_element_set_no": 999,
        "meta_rev_at_epoch": 360,
        "meta_bstar": 0.0011946741,
        "meta_mean_motion_dot": 0.00024626,
        "meta_mean_motion_ddot": 0,
        "tle_line1": "1 66748U 25276CL  25356.48735592  .00024626  00000+0  11947-2 0  9990",
        "tle_line2": "2 66748  97.4411  68.1044 0001956 222.4156 137.6927 15.18482862  3604"
      },
      "geometry": {
        "type": "Point",
        "coordinates": [
          69.39832166915158,
          -6.409179587946636
        ]
      }
    },
    {
      "type": "Feature",
      "properties": {
        "norad_id": 66749,
        "name": "TRANSPORTER-15CM",
        "group": "last-30-days",
        "lat": -30.95268261932749,
        "lon": 73.03916459744464,
        "alt_km": 519.2815374248667,
        "timestamp": "2025-12-22T22:44:19.650693+00:00",
        "meta_object_name": "TRANSPORTER-15CM",
        "meta_object_id": "2025-276CM",
        "meta_epoch": "2025-12-22T11:48:03.601440",
        "meta_mean_motion": 15.17864478,
        "meta_eccentricity": 0.00018245,
        "meta_inclination": 97.4403,
        "meta_ra_of_asc_node": 68.096,
        "meta_arg_of_pericenter": 193.3584,
        "meta_mean_anomaly": 166.7602,
        "meta_ephemeris_type": 0,
        "meta_classification_type": "U",
        "meta_norad_cat_id": 66749,
        "meta_element_set_no": 999,
        "meta_rev_at_epoch": 360,
        "meta_bstar": 0.0004735165,
        "meta_mean_motion_dot": 9.529e-05,
        "meta_mean_motion_ddot": 0,
        "tle_line1": "1 66749U 25276CM  25356.49170835  .00009529  00000+0  47352-3 0  9990",
        "tle_line2": "2 66749  97.4403  68.0960 0001824 193.3584 166.7602 15.17864478  3606"
      },
      "geometry": {
        "type": "Point",
        "coordinates": [
          73.03916459744464,
          -30.95268261932749
        ]
      }
    },
    {
      "type": "Feature",
      "properties": {
        "norad_id": 66750,
        "name": "TRANSPORTER-15CN",
        "group": "last-30-days",
        "lat": -14.147628221787201,
        "lon": 70.45484016984929,
        "alt_km": 517.9003834638706,
        "timestamp": "2025-12-22T22:44:19.650703+00:00",
        "meta_object_name": "TRANSPORTER-15CN",
        "meta_object_id": "2025-276CN",
        "meta_epoch": "2025-12-22T10:08:43.908288",
        "meta_mean_motion": 15.18028923,
        "meta_eccentricity": 0.00021047,
        "meta_inclination": 97.4441,
        "meta_ra_of_asc_node": 68.05,
        "meta_arg_of_pericenter": 154.1801,
        "meta_mean_anomaly": 205.9539,
        "meta_ephemeris_type": 0,
        "meta_classification_type": "U",
        "meta_norad_cat_id": 66750,
        "meta_element_set_no": 999,
        "meta_rev_at_epoch": 359,
        "meta_bstar": 0.00052744704,
        "meta_mean_motion_dot": 0.00010674,
        "meta_mean_motion_ddot": 0,
        "tle_line1": "1 66750U 25276CN  25356.42273042  .00010674  00000+0  52745-3 0  9994",
        "tle_line2": "2 66750  97.4441  68.0500 0002104 154.1801 205.9539 15.18028923  3590"
      },
      "geometry": {
        "type": "Point",
        "coordinates": [
          70.45484016984929,
          -14.147628221787201
        ]
      }
    },
    {
      "type": "Feature",
      "properties": {
        "norad_id": 66751,
        "name": "ICEYE-X58",
        "group": "last-30-days",
        "lat": -32.78943705528244,
        "lon": 73.3811813745962,
        "alt_km": 519.3231755575689,
        "timestamp": "2025-12-22T22:44:19.650715+00:00",
        "meta_object_name": "ICEYE-X58",
        "meta_object_id": "2025-276CP",
        "meta_epoch": "2025-12-22T13:23:27.502944",
        "meta_mean_motion": 15.17803244,
        "meta_eccentricity": 0.00022668,
        "meta_inclination": 97.4414,
        "meta_ra_of_asc_node": 68.1684,
        "meta_arg_of_pericenter": 213.1085,
        "meta_mean_anomaly": 147.0007,
        "meta_ephemeris_type": 0,
        "meta_classification_type": "U",
        "meta_norad_cat_id": 66751,
        "meta_element_set_no": 999,
        "meta_rev_at_epoch": 361,
        "meta_bstar": 0.00056487255,
        "meta_mean_motion_dot": 0.00011363,
        "meta_mean_motion_ddot": 0,
        "tle_line1": "1 66751U 25276CP  25356.55795721  .00011363  00000+0  56487-3 0  9995",
        "tle_line2": "2 66751  97.4414  68.1684 0002266 213.1085 147.0007 15.17803244  3619"
      },
      "geometry": {
        "type": "Point",
        "coordinates": [
          73.3811813745962,
          -32.78943705528244
        ]
      }
    },
    {
      "type": "Feature",
      "properties": {
        "norad_id": 66752,
        "name": "ICEYE-X59",
        "group": "last-30-days",
        "lat": -49.173304788637715,
        "lon": 77.24531648680643,
        "alt_km": 519.5538931459314,
        "timestamp": "2025-12-22T22:44:19.650729+00:00",
        "meta_object_name": "ICEYE-X59",
        "meta_object_id": "2025-276CQ",
        "meta_epoch": "2025-12-22T13:27:46.693440",
        "meta_mean_motion": 15.17608677,
        "meta_eccentricity": 0.00019104,
        "meta_inclination": 97.441,
        "meta_ra_of_asc_node": 68.165,
        "meta_arg_of_pericenter": 240.0023,
        "meta_mean_anomaly": 120.1021,
        "meta_ephemeris_type": 0,
        "meta_classification_type": "U",
        "meta_norad_cat_id": 66752,
        "meta_element_set_no": 999,
        "meta_rev_at_epoch": 361,
        "meta_bstar": 0.00051332063,
        "meta_mean_motion_dot": 0.00010261,
        "meta_mean_motion_ddot": 0,
        "tle_line1": "1 66752U 25276CQ  25356.56095710  .00010261  00000+0  51332-3 0  9998",
        "tle_line2": "2 66752  97.4410  68.1650 0001910 240.0023 120.1021 15.17608677  3616"
      },
      "geometry": {
        "type": "Point",
        "coordinates": [
          77.24531648680643,
          -49.173304788637715
        ]
      }
    }
  ]
}